{
  "type": "FeatureCollection",
  "features": [
    { "type": "Feature", "properties": { "station_id": "JKT", "station_name": "Jakarta Kota", "composite_score": 58.2, "avg_rent": 2250000, "avg_daily_spend": 92000, "total_commute_time": 32, "flood_risk_score": 0.5, "flood_risk_label": "sedang", "data_source": "primary" }, "geometry": { "type": "Polygon", "coordinates": [[[106.808,-6.142],[106.824,-6.142],[106.824,-6.157],[106.808,-6.157],[106.808,-6.142]]] } },
    { "type": "Feature", "properties": { "station_id": "MGR", "station_name": "Manggarai", "composite_score": 66.1, "avg_rent": 1900000, "avg_daily_spend": 86000, "total_commute_time": 22, "flood_risk_score": 0, "flood_risk_label": "rendah", "data_source": "primary" }, "geometry": { "type": "Polygon", "coordinates": [[[106.842,-6.205],[106.860,-6.205],[106.860,-6.221],[106.842,-6.221],[106.842,-6.205]]] } },
    { "type": "Feature", "properties": { "station_id": "TBT", "station_name": "Tebet", "composite_score": 72.8, "avg_rent": 1600000, "avg_daily_spend": 78000, "total_commute_time": 18, "flood_risk_score": 0, "flood_risk_label": "rendah", "data_source": "primary" }, "geometry": { "type": "Polygon", "coordinates": [[[106.846,-6.223],[106.864,-6.223],[106.864,-6.239],[106.846,-6.239],[106.846,-6.223]]] } },
    { "type": "Feature", "properties": { "station_id": "PDC", "station_name": "Pondok Cina", "composite_score": 79.4, "avg_rent": 1350000, "avg_daily_spend": 70000, "total_commute_time": 28, "flood_risk_score": 0.5, "flood_risk_label": "sedang", "data_source": "interpolated" }, "geometry": { "type": "Polygon", "coordinates": [[[106.818,-6.351],[106.838,-6.351],[106.838,-6.369],[106.818,-6.369],[106.818,-6.351]]] } },
    { "type": "Feature", "properties": { "station_id": "BGR", "station_name": "Bogor", "composite_score": 61.5, "avg_rent": 900000, "avg_daily_spend": 65000, "total_commute_time": 55, "flood_risk_score": 1, "flood_risk_label": "tinggi", "data_source": "primary" }, "geometry": { "type": "Polygon", "coordinates": [[[106.783,-6.584],[106.805,-6.584],[106.805,-6.605],[106.783,-6.605],[106.783,-6.584]]] } }
  ]
}
