{
  "type": "FeatureCollection",
  "features": [
    {
      "type": "Feature",
      "properties": {
        "name": "KRL Commuter Line Bogor"
      },
      "geometry": {
        "type": "LineString",
        "coordinates": [
          [
            106.81462,
            -6.137583
          ],
          [
            106.823132,
            -6.1413
          ],
          [
            106.826983,
            -6.149804
          ],
          [
            106.827655,
            -6.160667
          ],
          [
            106.830461,
            -6.166675
          ],
          [
            106.832566,
            -6.185911
          ],
          [
            106.84128,
            -6.198505
          ],
          [
            106.849935,
            -6.21017
          ],
          [
            106.858439,
            -6.226398
          ],
          [
            106.85869,
            -6.242552
          ],
          [
            106.855167,
            -6.255201
          ],
          [
            106.851796,
            -6.262798
          ],
          [
            106.844856,
            -6.283332
          ],
          [
            106.838949,
            -6.308041
          ],
          [
            106.834679,
            -6.330308
          ],
          [
            106.834263,
            -6.339345
          ],
          [
            106.831782,
            -6.360431
          ],
          [
            106.832084,
            -6.369059
          ],
          [
            106.821641,
            -6.391129
          ],
          [
            106.817084,
            -6.404826
          ],
          [
            106.802362,
            -6.448824
          ],
          [
            106.795025,
            -6.493234
          ],
          [
            106.800688,
            -6.530724
          ],
          [
            106.790769,
            -6.594289
          ]
        ]
      }
    }
  ]
}